NORAD_CAT_ID,OBJECT_NAME,OBJECT_TYPE,EPOCH,MEAN_MOTION,ECCENTRICITY,INCLINATION,RA_OF_ASC_NODE,ARG_OF_PERICENTER,MEAN_ANOMALY,BSTAR,MEAN_MOTION_DOT,MEAN_MOTION_DDOT,TLE_LINE0,TLE_LINE1,TLE_LINE2,SEMIMAJOR_AXIS,PERIOD,APOGEE,PERIGEE,DECAYED
51782.0,STARLINK-3616,PAYLOAD,2022-04-15 03:50:45,15.43555851,0.0001356,53.2146,266.80400000000003,72.5356,287.58,-0.0079789,-0.00348331,0.0,0 STARLINK-3616,1 51782U 22017Q   22105.16024475 -.00348331  00000-0 -79789-2 0  9990,2 51782  53.2146 266.8040 0001356  72.5356 287.5800 15.43555851  8825,6813.762,93.291,436.551,434.703,0.0
51782.0,STARLINK-3616,PAYLOAD,2022-04-15 13:10:20,15.43321103,0.0001984,53.2151,264.9654,44.403,315.7136,-0.0057915,-0.00254021,0.0,0 STARLINK-3616,1 51782U 22017Q   22105.54884914 -.00254021  00000-0 -57915-2 0  9993,2 51782  53.2151 264.9654 0001984  44.4030 315.7136 15.43321103  7157,6814.453,93.305,437.67,434.966,0.0
51782.0,STARLINK-3616,PAYLOAD,2022-04-15 14:00:01,15.42167134,0.0001849,53.2176,264.7932,38.7478,151.9868,-0.017841,-0.00718222,0.0,0 STARLINK-3616,1 51782U 22017Q   22105.58334491 -.00718222  00000-0 -17841-1 0  9998,2 51782  53.2176 264.7932 0001849  38.7478 151.9868 15.42167134  8887,6817.852,93.375,440.977,438.456,0.0
51782.0,STARLINK-3616,PAYLOAD,2022-04-15 22:00:00,15.41655135,0.0001569,53.2172,263.2191,49.3656,192.6992,-0.01804,-0.00714121,0.0,0 STARLINK-3616,1 51782U 22017Q   22105.91667824 -.00714121  00000-0 -18040-1 0  9990,2 51782  53.2172 263.2191 0001569  49.3656 192.6992 15.41655135  3640,6819.361,93.406,442.296,440.156,0.0
51782.0,STARLINK-3616,PAYLOAD,2022-04-16 14:00:01,15.40638859,0.0001718,53.2176,260.0714,35.6333,307.2536,-0.018847,-0.00720636,0.0,0 STARLINK-3616,1 51782U 22017Q   22106.58334491 -.00720636  00000-0 -18847-1 0  9998,2 51782  53.2176 260.0714 0001718  35.6333 307.2536 15.40638859  9047,6822.36,93.468,445.397,443.05300000000005,0.0
51782.0,STARLINK-3616,PAYLOAD,2022-04-16 22:00:01,15.40127156,0.0001369,53.2172,258.5008,47.2396,345.2034,-0.019067,-0.0071698,0.0,0 STARLINK-3616,1 51782U 22017Q   22106.91668981 -.00716980  00000-0 -19067-1 0  9991,2 51782  53.2172 258.5008 0001369  47.2396 345.2034 15.40127156  3672,6823.871,93.499,446.67,444.802,0.0
51782.0,STARLINK-3616,PAYLOAD,2022-04-17 14:00:01,15.39107295,0.000177,53.2173,255.3606,38.2932,91.2323,-0.019752,-0.00718061,0.0,0 STARLINK-3616,1 51782U 22017Q   22107.58334491 -.00718061  00000-0 -19752-1 0  9994,2 51782  53.2173 255.3606 0001770  38.2932  91.2323 15.39107295  3673,6826.885,93.561,449.958,447.541,0.0
51782.0,STARLINK-3616,PAYLOAD,2022-04-17 22:00:00,15.38597051,0.0001649,53.2171,253.7935,45.4909,131.6877,-0.020054,-0.00716962,0.0,0 STARLINK-3616,1 51782U 22017Q   22107.91667824 -.00716962  00000-0 -20054-1 0  9995,2 51782  53.2171 253.7935 0001649  45.4909 131.6877 15.38597051  3661,6828.394,93.592,451.385,449.133,0.0
51782.0,STARLINK-3616,PAYLOAD,2022-04-18 08:00:01,15.37958533,0.0001413,53.2173,251.8332,44.2195,281.6664,-0.020445,-0.00715843,0.0,0 STARLINK-3616,1 51782U 22017Q   22108.33334491 -.00715843  00000-0 -20445-1 0  9994,2 51782  53.2173 251.8332 0001413  44.2195 281.6664 15.37958533  9319,6830.284000000002,93.631,453.114,451.184,0.0
51782.0,STARLINK-3616,PAYLOAD,2022-04-18 14:00:01,15.37576771,0.0001824,53.2173,250.6606,39.1718,231.4766,-0.020718,-0.00716422,0.0,0 STARLINK-3616,1 51782U 22017Q   22108.58334491 -.00716422  00000-0 -20718-1 0  9998,2 51782  53.2173 250.6606 0001824  39.1718 231.4766 15.37576771  3668,6831.4140000000025,93.654,454.526,452.033,0.0
51782.0,STARLINK-3616,PAYLOAD,2022-04-18 22:00:00,15.37068792,0.0001388,53.2172,249.0968,51.3293,265.1331,-0.02115,-0.00719068,0.0,0 STARLINK-3616,1 51782U 22017Q   22108.91667824 -.00719068  00000-0 -21150-1 0  9994,2 51782  53.2172 249.0968 0001388  51.3293 265.1331 15.37068792  3660,6832.92,93.685,455.733,453.836,0.0
51782.0,STARLINK-3616,PAYLOAD,2022-04-19 14:00:01,15.36048687,0.0001748,53.2175,245.9716,34.5877,11.6677,-0.021878,-0.00719621,0.0,0 STARLINK-3616,1 51782U 22017Q   22109.58334491 -.00719621  00000-0 -21878-1 0  9991,2 51782  53.2175 245.9716 0001748  34.5877  11.6677 15.36048687  9506,6835.944,93.747,459.004,456.614,0.0
51782.0,STARLINK-3616,PAYLOAD,2022-04-20 14:00:01,15.34516187,0.0002109,53.2174,241.2933,32.4935,143.8556,-0.022841,-0.00715546,0.0,0 STARLINK-3616,1 51782U 22017Q   22110.58334491 -.00715546  00000-0 -22841-1 0  9996,2 51782  53.2174 241.2933 0002109  32.4935 143.8556 15.34516187  9652,6840.495,93.841,463.80300000000005,460.917,0.0
51782.0,STARLINK-3616,PAYLOAD,2022-04-20 22:00:00,15.34008981,0.0001631,53.2172,239.7364,48.6638,169.8228,-0.023365,-0.00719774,0.0,0 STARLINK-3616,1 51782U 22017Q   22110.91667824 -.00719774  00000-0 -23365-1 0  9991,2 51782  53.2172 239.7364 0001631  48.6638 169.8228 15.34008981  3654,6842.003000000002,93.872,464.984,462.752,0.0
51782.0,STARLINK-3616,PAYLOAD,2022-04-21 14:00:01,15.32987125,0.0002095,53.2175,236.626,29.862,271.0641,-0.024013,-0.00716429,0.0,0 STARLINK-3616,1 51782U 22017Q   22111.58334491 -.00716429  00000-0 -24013-1 0  9991,2 51782  53.2175 236.6260 0002095  29.8620 271.0641 15.32987125  3665,6845.043000000002,93.934,468.342,465.474,0.0
51782.0,STARLINK-3616,PAYLOAD,2022-04-21 22:00:00,15.32479502,0.0001357,53.2173,235.0725,51.89,289.3356,-0.024542,-0.00720129,0.0,0 STARLINK-3616,1 51782U 22017Q   22111.91667824 -.00720129  00000-0 -24542-1 0  9996,2 51782  53.2173 235.0725 0001357  51.8900 289.3356 15.32479502  3680,6846.554,93.965,469.348,467.49,0.0
51782.0,STARLINK-3616,PAYLOAD,2022-04-22 14:00:01,15.31458772,0.0001708,53.2176,231.9696,37.764,22.2239,-0.025296,-0.00718923,0.0,0 STARLINK-3616,1 51782U 22017Q   22112.58334491 -.00718923  00000-0 -25296-1 0  9997,2 51782  53.2176 231.9696 0001708  37.7640  22.2239 15.31458772  3677,6849.596,94.028,472.631,470.291,0.0
51782.0,STARLINK-3616,PAYLOAD,2022-04-22 22:00:00,15.30947554,0.000176,53.2172,230.4195,36.9392,61.5112,-0.025606,-0.00716383,0.0,0 STARLINK-3616,1 51782U 22017Q   22112.91667824 -.00716383  00000-0 -25606-1 0  9996,2 51782  53.2172 230.4195 0001760  36.9392  61.5112 15.30947554 10016,6851.121,94.059,474.192,471.78,0.0
51782.0,STARLINK-3616,PAYLOAD,2022-04-23 14:00:01,15.29927058,0.0001882,53.2174,227.3239,40.645,132.8911,-0.026421,-0.0071607,0.0,0 STARLINK-3616,1 51782U 22017Q   22113.58334491 -.00716070  00000-0 -26421-1 0  9990,2 51782  53.2174 227.3239 0001882  40.6450 132.8911 15.29927058  3649,6854.167,94.122,477.322,474.742,0.0
51782.0,STARLINK-3616,PAYLOAD,2022-04-23 22:00:00,15.29418402,0.00016,53.2172,225.7772,52.2882,157.8711,-0.026919,-0.00717942,0.0,0 STARLINK-3616,1 51782U 22017Q   22113.91667824 -.00717942  00000-0 -26919-1 0  9997,2 51782  53.2172 225.7772 0001600  52.2882 157.8711 15.29418402 10176,6855.687,94.153,478.649,476.455,0.0
51782.0,STARLINK-3616,PAYLOAD,2022-04-24 14:00:01,15.28397228,0.0001803,53.2174,222.689,41.7903,239.7779,-0.027701,-0.00724328,0.0,0 STARLINK-3616,1 51782U 22017Q   22114.58334491 -.00724328  00000-0 -27701-1 0  9998,2 51782  53.2174 222.6890 0001803  41.7903 239.7779 15.28397228  3668,6858.74,94.216,481.842,479.36800000000005,0.0
51782.0,STARLINK-3616,PAYLOAD,2022-04-25 06:00:00,15.2737609,0.0001406,53.2175,219.6033,52.5902,297.9369,-0.028481,-0.00721878,0.0,0 STARLINK-3616,1 51782U 22017Q   22115.25001157 -.00721878  00000-0 -28481-1 0  9996,2 51782  53.2175 219.6033 0001406  52.5902 297.9369 15.27376090 10372,6861.797,94.279,484.627,482.697,0.0
51782.0,STARLINK-3616,PAYLOAD,2022-04-25 14:00:01,15.26869533,0.0001686,53.2174,218.065,39.5887,344.4957,-0.029186,-0.00727994,0.0,0 STARLINK-3616,1 51782U 22017Q   22115.58334491 -.00727994  00000-0 -29186-1 0  9990,2 51782  53.2174 218.0650 0001686  39.5887 344.4957 15.26869533  3670,6863.314,94.311,486.336,484.022,0.0
51782.0,STARLINK-3616,PAYLOAD,2022-04-25 22:00:00,15.26358059,0.0001349,53.2173,216.5253,54.7288,2.3035,-0.029526,-0.00725249,0.0,0 STARLINK-3616,1 51782U 22017Q   22115.91667824 -.00725249  00000-0 -29526-1 0  9995,2 51782  53.2173 216.5253 0001349  54.7288   2.3035 15.26358059  3674,6864.847,94.342,487.639,485.786,0.0
51782.0,STARLINK-3616,PAYLOAD,2022-04-26 06:00:00,15.25847339,0.0001529,53.2175,214.9863,48.2209,41.1462,-0.029908,-0.00723482,0.0,0 STARLINK-3616,1 51782U 22017Q   22116.25001157 -.00723482  00000-0 -29908-1 0  9995,2 51782  53.2175 214.9863 0001529  48.2209  41.1462 15.25847339 10526,6866.379,94.374,489.294,487.194,0.0
51782.0,STARLINK-3616,PAYLOAD,2022-04-26 14:00:01,15.25338964,0.0001784,53.2174,213.4517,41.9862,79.164,-0.030518,-0.00726769,0.0,0 STARLINK-3616,1 51782U 22017Q   22116.58335648 -.00726769  00000-0 -30518-1 0  9996,2 51782  53.2174 213.4517 0001784  41.9862  79.1640 15.25338964  3668,6867.905,94.405,490.995,488.545,0.0
51782.0,STARLINK-3616,PAYLOAD,2022-04-26 22:00:00,15.24827852,0.0001744,53.2172,211.9154,43.1611,109.0349,-0.030888,-0.00724485,0.0,0 STARLINK-3616,1 51782U 22017Q   22116.91667824 -.00724485  00000-0 -30888-1 0  9990,2 51782  53.2172 211.9154 0001744  43.1611 109.0349 15.24827852  3632,6869.439,94.437,492.502,490.106,0.0
51782.0,STARLINK-3616,PAYLOAD,2022-04-27 06:00:00,15.24318156,0.0001691,53.2175,210.3804,49.2593,133.4325,-0.03135,-0.00724154,0.0,0 STARLINK-3616,1 51782U 22017Q   22117.25001157 -.00724154  00000-0 -31350-1 0  9997,2 51782  53.2175 210.3804 0001691  49.2593 133.4325 15.24318156 10676,6870.971,94.468,493.99800000000016,491.674,0.0
51782.0,STARLINK-3616,PAYLOAD,2022-04-27 14:00:01,15.23807309,0.000181,53.2173,208.8491,45.8108,166.8269,-0.031803,-0.00723514,0.0,0 STARLINK-3616,1 51782U 22017Q   22117.58335648 -.00723514  00000-0 -31803-1 0  9990,2 51782  53.2173 208.8491 0001810  45.8108 166.8269 15.23807309  3654,6872.505999999999,94.5,495.615,493.127,0.0
